     2.100          NAVIGATION                              RINEX VERSION / TYPE
fic2rin                                 08/12/2016 00:11:03 PGM / RUN BY / DATE
                                                            END OF HEADER
32 16  8 11 12  0  0.0 -.759423710406D-04 -.122781784739D-10  .000000000000D+00
     .460000000000D+02  .258125000000D+02  .443304179684D-08  .871721285868D+00
     .116601586342D-05  .638173893094D-03  .955164432526D-05  .515363750648D+04
     .388800000000D+06 -.707805156708D-07 -.145626096375D+01 -.204890966415D-07
     .958908774948D+00  .191718750000D+03 -.227725882607D+01 -.794104506212D-08
    -.721458623076D-10  .100000000000D+01  .190900000000D+04  .000000000000D+00
     .240000000000D+01  .000000000000D+00  .931322574615D-09  .460000000000D+02
     .381606000000D+06  .400000000000D+01
15 16  8 11 11 59 28.0 -.322994776070D-03 -.147792889038D-11  .000000000000D+00
     .400000000000D+01  .265937500000D+02  .516128641687D-08 -.220735532350D+00
     .151060521603D-05  .830204726662D-02  .909529626369D-05  .515364595795D+04
     .388768000000D+06  .931322574615D-07 -.151249297608D+01  .540167093277D-07
     .930038551862D+00  .186812500000D+03  .488825566393D+00 -.844285167866D-08
    -.853606984729D-10  .100000000000D+01  .190900000000D+04  .000000000000D+00
     .240000000000D+01  .000000000000D+00 -.107102096081D-07  .400000000000D+01
     .386706000000D+06  .400000000000D+01
15 16  8 11 13 59 28.0 -.323005486280D-03 -.147792889038D-11  .000000000000D+00
     .110000000000D+02  .295625000000D+02  .507306845652D-08  .829490666450D+00
     .162608921528D-05  .830254645552D-02  .888481736183D-05  .515364675522D+04
     .395968000000D+06 -.670552253723D-07 -.151255270702D+01  .134110450745D-06
     .930037966694D+00  .191875000000D+03  .488800417368D+00 -.832998983466D-08
    -.195365280605D-09  .100000000000D+01  .190900000000D+04  .000000000000D+00
     .240000000000D+01  .000000000000D+00 -.107102096081D-07  .110000000000D+02
     .388806000000D+06  .400000000000D+01
 1 16  8 11 14  0  0.0  .300151295960D-04  .136424205266D-11  .000000000000D+00
     .200000000000D+02 -.139375000000D+02  .452018828399D-08 -.520041776113D+00
    -.849366188049D-06  .578578666318D-02  .744871795177D-05  .515363754272D+04
     .396000000000D+06  .484287738800D-07  .274489523099D+01  .596046447754D-07
     .965274557640D+00  .237406250000D+03  .518280368618D+00 -.808069373619D-08
     .700029159024D-10  .100000000000D+01  .190900000000D+04  .000000000000D+00
     .240000000000D+01  .000000000000D+00  .512227416039D-08  .200000000000D+02
     .388806000000D+06  .400000000000D+01
 2 16  8 11 14  0  0.0  .566459260881D-03 -.432009983342D-11  .000000000000D+00
     .360000000000D+02 -.946875000000D+01  .516057210140D-08 -.102314186368D+00
    -.402331352234D-06  .158668730874D-01  .727176666260D-05  .515361121178D+04
     .396000000000D+06 -.558793544769D-07  .269774697149D+01  .253319740295D-06
     .944052451254D+00  .233562500000D+03 -.209523799434D+01 -.862321633443D-08
     .122147945095D-09  .100000000000D+01  .190900000000D+04  .000000000000D+00
     .240000000000D+01  .000000000000D+00 -.204890966415D-07  .360000000000D+02
     .388806000000D+06  .400000000000D+01
 3 16  8 11 14  0  0.0 -.798394903541D-04 -.272848410532D-11  .000000000000D+00
     .270000000000D+02 -.207812500000D+02  .457697636372D-08 -.442527118928D+00
    -.990927219391D-06  .144569552504D-03  .724568963051D-05  .515364155197D+04
     .396000000000D+06 -.391155481339D-07 -.249703743005D+01 -.968575477600D-07
     .959507017742D+00  .241843750000D+03 -.703466799999D+00 -.801104797802D-08
    -.170007081477D-09  .100000000000D+01  .190900000000D+04  .000000000000D+00
     .240000000000D+01  .000000000000D+00  .139698386192D-08  .270000000000D+02
     .388806000000D+06  .400000000000D+01
 4 16  8 11 14  0  0.0 -.259981956333D-03 -.341060513165D-12  .000000000000D+00
     .200000000000D+02 -.190625000000D+02  .547879964257D-08  .269901081129D+01
    -.104494392872D-05  .845735380426D-02  .486709177494D-05  .515366703033D+04
     .396000000000D+06 -.186264514923D-07  .667803835727D+00 -.100582838058D-06
     .983261160294D+00  .299031250000D+03  .903608755549D+00 -.790782939284D-08
    -.650027076237D-10  .100000000000D+01  .190900000000D+04  .000000000000D+00
     .240000000000D+01  .630000000000D+02 -.195577740669D-07  .200000000000D+02
     .388806000000D+06  .400000000000D+01
 5 16  8 11 14  0  0.0 -.988822430372D-04  .272848410532D-11  .000000000000D+00
     .770000000000D+02 -.166250000000D+02  .491877631535D-08  .238666639938D+01
    -.955536961555D-06  .466006528586D-02  .752881169319D-05  .515357202530D+04
     .396000000000D+06 -.484287738800D-07 -.250996180804D+01 -.223517417908D-07
     .946559594407D+00  .229312500000D+03  .476246216172D+00 -.818569811004D-08
    -.155720772109D-09  .100000000000D+01  .190900000000D+04  .000000000000D+00
     .240000000000D+01  .000000000000D+00 -.107102096081D-07  .770000000000D+02
     .388806000000D+06  .400000000000D+01
 6 16  8 11 14  0  0.0  .231135170907D-03  .522959453519D-11  .000000000000D+00
     .590000000000D+02 -.127187500000D+02  .450875923649D-08 -.242096136116D+00
    -.603497028351D-06  .270784716122D-03  .745616853237D-05  .515374346542D+04
     .396000000000D+06 -.204890966415D-07  .273648051011D+01  .316649675369D-07
     .965088094101D+00  .239500000000D+03 -.136673285988D+01 -.803140596887D-08
     .113576159474D-09  .100000000000D+01  .190900000000D+04  .000000000000D+00
     .240000000000D+01  .000000000000D+00  .419095158577D-08  .590000000000D+02
     .388806000000D+06  .400000000000D+01
 7 16  8 11 14  0  0.0  .435611698776D-03 -.272848410532D-11  .000000000000D+00
     .670000000000D+02  .552187500000D+02  .442161274935D-08 -.121984390195D+01
     .287219882011D-05  .988704711199D-02  .581331551075D-05  .515363582802D+04
     .396000000000D+06  .167638063431D-06 -.379674360698D+00 -.484287738800D-07
     .965692893694D+00  .264625000000D+03 -.264828358414D+01 -.806497879588D-08
     .213937482783D-09  .100000000000D+01  .190900000000D+04  .000000000000D+00
     .240000000000D+01  .000000000000D+00 -.111758708954D-07  .670000000000D+02
     .388806000000D+06  .400000000000D+01
 8 16  8 11 14  0  0.0 -.461996532977D-04 -.147792889038D-11  .000000000000D+00
     .580000000000D+02 -.511250000000D+02  .455983279248D-08  .241699036073D+01
    -.243633985519D-05  .167800020427D-02  .740960240364D-05  .515373323631D+04
     .396000000000D+06  .111758708954D-06  .168365305717D+01 -.298023223877D-07
     .963793812441D+00  .235843750000D+03 -.103147314996D+01 -.807140763510D-08
    -.421446126351D-10  .100000000000D+01  .190900000000D+04  .000000000000D+00
     .240000000000D+01  .000000000000D+00  .512227416039D-08  .580000000000D+02
     .388806000000D+06  .400000000000D+01
 9 16  8 11 14  0  0.0  .184803735465D-03  .727595761418D-11  .000000000000D+00
     .410000000000D+02  .248125000000D+02  .447661504041D-08  .145261090561D+01
     .136159360409D-05  .495292828418D-03  .908225774765D-05  .515380865860D+04
     .396000000000D+06  .633299350739D-07 -.145809592677D+01  .298023223877D-07
     .954333187054D+00  .201062500000D+03  .215350526511D+01 -.799140430264D-08
    -.225009372544D-10  .100000000000D+01  .190900000000D+04  .000000000000D+00
     .240000000000D+01  .000000000000D+00  .139698386192D-08  .410000000000D+02
     .388806000000D+06  .400000000000D+01
10 16  8 11 14  0  0.0 -.814860686660D-04 -.613908923697D-11  .000000000000D+00
     .500000000000D+02 -.138750000000D+02  .458447667614D-08 -.277141610419D+01
    -.709667801857D-06  .165384728462D-02  .737421214581D-05  .515367507744D+04
     .396000000000D+06  .316649675369D-07 -.250098061456D+01  .335276126862D-07
     .959734126996D+00  .236562500000D+03 -.277760084492D+01 -.799926177279D-08
    -.939324840936D-10  .100000000000D+01  .190900000000D+04  .000000000000D+00
     .240000000000D+01  .000000000000D+00  .232830643654D-08  .500000000000D+02
     .388806000000D+06  .400000000000D+01
11 16  8 11 14  0  0.0 -.658854376525D-03 -.113686837722D-11  .000000000000D+00
     .500000000000D+01 -.135937500000D+02  .611704051358D-08 -.110821255126D+01
    -.543892383575D-06  .167125615990D-01  .769086182117D-05  .515367303848D+04
     .396000000000D+06 -.268220901489D-06  .236260718720D+01  .270083546638D-06
     .897590174519D+00  .197843750000D+03  .155559089379D+01 -.898894585425D-08
     .900037490174D-10  .100000000000D+01  .190900000000D+04  .000000000000D+00
     .240000000000D+01  .000000000000D+00 -.121071934700D-07  .500000000000D+01
     .388806000000D+06  .400000000000D+01
12 16  8 11 14  0  0.0  .387282576412D-03  .795807864051D-12  .000000000000D+00
     .570000000000D+02 -.224375000000D+02  .412374319903D-08 -.182248261360D+01
    -.113435089588D-05  .607223412953D-02  .524893403053D-05  .515368158531D+04
     .396000000000D+06  .819563865662D-07  .697643448313D+00  .353902578354D-07
     .990303437267D+00  .293156250000D+03  .787743263503D+00 -.794497379719D-08
     .282154610015D-10  .100000000000D+01  .190900000000D+04  .000000000000D+00
     .340000000000D+01  .000000000000D+00 -.125728547573D-07  .570000000000D+02
     .388806000000D+06  .400000000000D+01
13 16  8 11 14  0  0.0 -.369255430996D-04 -.238742359215D-11  .000000000000D+00
     .800000000000D+01  .400312500000D+02  .418017412103D-08 -.269494534878D+00
     .191852450371D-05  .406740012113D-02  .878795981407D-05  .515368566895D+04
     .396000000000D+06 -.614672899246D-07 -.133617465169D+01 -.540167093277D-07
     .970671958783D+00  .215843750000D+03  .198455665680D+01 -.788925719066D-08
    -.382158775590D-10  .100000000000D+01  .190900000000D+04  .000000000000D+00
     .240000000000D+01  .000000000000D+00 -.111758708954D-07  .800000000000D+01
     .388806000000D+06  .400000000000D+01
